{
    "links": {
        "self": "http://www.neowsapp.com/rest/v1/neo/3842770?api_key=iIulBulltgU6a56xZRHN4H3l9WmuAYTsLGpBGhQ2"
    },
    "id": "3842770",
    "neo_reference_id": "3842770",
    "name": "(2019 LU1)",
    "designation": "2019 LU1",
    "nasa_jpl_url": "http://ssd.jpl.nasa.gov/sbdb.cgi?sstr=3842770",
    "absolute_magnitude_h": 24.2,
    "estimated_diameter": {
        "kilometers": {
            "estimated_diameter_min": 0.0384197891,
            "estimated_diameter_max": 0.0859092601
        },
        "meters": {
            "estimated_diameter_min": 38.4197891064,
            "estimated_diameter_max": 85.9092601232
        },
        "miles": {
            "estimated_diameter_min": 0.0238729428,
            "estimated_diameter_max": 0.0533815229
        },
        "feet": {
            "estimated_diameter_min": 126.0491808919,
            "estimated_diameter_max": 281.8545369825
        }
    },
    "is_potentially_hazardous_asteroid": false,
    "close_approach_data": [
        {
            "close_approach_date": "1904-05-25",
            "close_approach_date_full": "1904-May-25 19:31",
            "epoch_date_close_approach": -2070246540000,
            "relative_velocity": {
                "kilometers_per_second": "38.4974020463",
                "kilometers_per_hour": "138590.6473665734",
                "miles_per_hour": "86114.8386373023"
            },
            "miss_distance": {
                "astronomical": "0.2127383822",
                "lunar": "82.7552306758",
                "kilometers": "31825208.844365914",
                "miles": "19775267.7845370532"
            },
            "orbiting_body": "Earth"
        },
        {
            "close_approach_date": "1953-06-02",
            "close_approach_date_full": "1953-Jun-02 15:09",
            "epoch_date_close_approach": -523270260000,
            "relative_velocity": {
                "kilometers_per_second": "33.5776266871",
                "kilometers_per_hour": "120879.4560736327",
                "miles_per_hour": "75109.7931364192"
            },
            "miss_distance": {
                "astronomical": "0.0531431837",
                "lunar": "20.6726984593",
                "kilometers": "7950107.086538719",
                "miles": "4939967.4742395622"
            },
            "orbiting_body": "Earth"
        },
        {
            "close_approach_date": "2019-06-08",
            "close_approach_date_full": "2019-Jun-08 17:06",
            "epoch_date_close_approach": 1560013560000,
            "relative_velocity": {
                "kilometers_per_second": "29.9640166584",
                "kilometers_per_hour": "107870.4599704096",
                "miles_per_hour": "67026.5088632803"
            },
            "miss_distance": {
                "astronomical": "0.0698654564",
                "lunar": "27.1776625396",
                "kilometers": "10451723.464017868",
                "miles": "6494399.8112198584"
            },
            "orbiting_body": "Earth"
        }
    ],
    "orbital_data": {
        "orbit_id": "3",
        "orbit_determination_date": "2020-08-20 06:58:40",
        "first_observation_date": "2019-06-01",
        "last_observation_date": "2019-06-08",
        "data_arc_in_days": 7,
        "observations_used": 30,
        "orbit_uncertainty": "9",
        "minimum_orbit_intersection": ".00217876",
        "jupiter_tisserand_invariant": "3.927",
        "epoch_osculation": "2458639.5",
        "eccentricity": ".8757327569680839",
        "semi_major_axis": "1.526906996547256",
        "inclination": "7.350948335153167",
        "ascending_node_longitude": "75.63940498115534",
        "orbital_period": "689.1556238189422",
        "perihelion_distance": ".1897445228270709",
        "perihelion_argument": "316.8634510431104",
        "aphelion_distance": "2.864069470267442",
        "perihelion_time": "2458685.262661252301",
        "mean_anomaly": "336.0945750401993",
        "mean_motion": ".5223783824110251",
        "equinox": "J2000",
        "orbit_class": {
            "orbit_class_type": "APO",
            "orbit_class_description": "Near-Earth asteroid orbits which cross the Earth’s orbit similar to that of 1862 Apollo",
            "orbit_class_range": "a (semi-major axis) > 1.0 AU; q (perihelion) < 1.017 AU"
        }
    },
    "is_sentry_object": false
}